{
  "type": "FeatureCollection",
  "features": [
    {
      "type": "Feature",
      "properties": {
        "norad_id": 32275,
        "name": "COSMOS 2433 (720)",
        "group": "glo-ops",
        "lat": 31.543882473898467,
        "lon": -21.932669141767622,
        "alt_km": 19136.34198799551,
        "timestamp": "2025-12-19T16:54:44.522005+00:00",
        "meta_object_name": "COSMOS 2433 (720)",
        "meta_object_id": "2007-052A",
        "meta_epoch": "2025-12-19T04:33:13.000320",
        "meta_mean_motion": 2.13104199,
        "meta_eccentricity": 0.0005237,
        "meta_inclination": 65.6796,
        "meta_ra_of_asc_node": 321.9886,
        "meta_arg_of_pericenter": 255.1824,
        "meta_mean_anomaly": 104.7517,
        "meta_ephemeris_type": 0,
        "meta_classification_type": "U",
        "meta_norad_cat_id": 32275,
        "meta_element_set_no": 999,
        "meta_rev_at_epoch": 14122,
        "meta_bstar": 0,
        "meta_mean_motion_dot": -5.9e-07,
        "meta_mean_motion_ddot": 0,
        "tle_line1": "1 32275U 07052A   25353.18973380 -.00000059  00000+0  00000+0 0  9993",
        "tle_line2": "2 32275  65.6796 321.9886 0005237 255.1824 104.7517  2.13104199141226"
      },
      "geometry": {
        "type": "Point",
        "coordinates": [
          -21.932669141767622,
          31.543882473898467
        ]
      }
    },
    {
      "type": "Feature",
      "properties": {
        "norad_id": 32276,
        "name": "COSMOS 2432 (719)",
        "group": "glo-ops",
        "lat": -18.615060332796546,
        "lon": -46.67320700288378,
        "alt_km": 19106.635517429946,
        "timestamp": "2025-12-19T16:54:44.522029+00:00",
        "meta_object_name": "COSMOS 2432 (719)",
        "meta_object_id": "2007-052B",
        "meta_epoch": "2025-12-19T05:46:36.242400",
        "meta_mean_motion": 2.13103325,
        "meta_eccentricity": 0.0011333,
        "meta_inclination": 65.6954,
        "meta_ra_of_asc_node": 322.1112,
        "meta_arg_of_pericenter": 313.5776,
        "meta_mean_anomaly": 29.8989,
        "meta_ephemeris_type": 0,
        "meta_classification_type": "U",
        "meta_norad_cat_id": 32276,
        "meta_element_set_no": 999,
        "meta_rev_at_epoch": 14124,
        "meta_bstar": 0,
        "meta_mean_motion_dot": -5.9e-07,
        "meta_mean_motion_ddot": 0,
        "tle_line1": "1 32276U 07052B   25353.24069725 -.00000059  00000+0  00000+0 0  9990",
        "tle_line2": "2 32276  65.6954 322.1112 0011333 313.5776  29.8989  2.13103325141249"
      },
      "geometry": {
        "type": "Point",
        "coordinates": [
          -46.67320700288378,
          -18.615060332796546
        ]
      }
    },
    {
      "type": "Feature",
      "properties": {
        "norad_id": 32393,
        "name": "COSMOS 2434 (721)",
        "group": "glo-ops",
        "lat": -60.249954735440284,
        "lon": 140.5766343654586,
        "alt_km": 19145.672361936282,
        "timestamp": "2025-12-19T16:54:44.522044+00:00",
        "meta_object_name": "COSMOS 2434 (721)",
        "meta_object_id": "2007-065A",
        "meta_epoch": "2025-12-19T02:55:57.654912",
        "meta_mean_motion": 2.13101443,
        "meta_eccentricity": 0.00044478,
        "meta_inclination": 64.3149,
        "meta_ra_of_asc_node": 197.9879,
        "meta_arg_of_pericenter": 71.0524,
        "meta_mean_anomaly": 127.6771,
        "meta_ephemeris_type": 0,
        "meta_classification_type": "U",
        "meta_norad_cat_id": 32393,
        "meta_element_set_no": 999,
        "meta_rev_at_epoch": 13993,
        "meta_bstar": 0,
        "meta_mean_motion_dot": 1.06e-06,
        "meta_mean_motion_ddot": 0,
        "tle_line1": "1 32393U 07065A   25353.12219508  .00000106  00000+0  00000+0 0  9999",
        "tle_line2": "2 32393  64.3149 197.9879 0004447  71.0524 127.6771  2.13101443139932"
      },
      "geometry": {
        "type": "Point",
        "coordinates": [
          140.5766343654586,
          -60.249954735440284
        ]
      }
    },
    {
      "type": "Feature",
      "properties": {
        "norad_id": 32395,
        "name": "COSMOS 2436 (723)",
        "group": "glo-ops",
        "lat": 50.36592244908614,
        "lon": -126.43045046809459,
        "alt_km": 19094.766921822815,
        "timestamp": "2025-12-19T16:54:44.522058+00:00",
        "meta_object_name": "COSMOS 2436 (723)",
        "meta_object_id": "2007-065C",
        "meta_epoch": "2025-12-16T08:11:52.503360",
        "meta_mean_motion": 2.13100112,
        "meta_eccentricity": 0.00177699,
        "meta_inclination": 64.3235,
        "meta_ra_of_asc_node": 198.1521,
        "meta_arg_of_pericenter": 9.2217,
        "meta_mean_anomaly": 349.3751,
        "meta_ephemeris_type": 0,
        "meta_classification_type": "U",
        "meta_norad_cat_id": 32395,
        "meta_element_set_no": 999,
        "meta_rev_at_epoch": 13982,
        "meta_bstar": 0,
        "meta_mean_motion_dot": 1.1e-06,
        "meta_mean_motion_ddot": 0,
        "tle_line1": "1 32395U 07065C   25350.34157990  .00000110  00000+0  00000+0 0  9993",
        "tle_line2": "2 32395  64.3235 198.1521 0017769   9.2217 349.3751  2.13100112139821"
      },
      "geometry": {
        "type": "Point",
        "coordinates": [
          -126.43045046809459,
          50.36592244908614
        ]
      }
    },
    {
      "type": "Feature",
      "properties": {
        "norad_id": 36111,
        "name": "COSMOS 2456 (730)",
        "group": "glo-ops",
        "lat": 63.96083009817427,
        "lon": 150.34850471001,
        "alt_km": 19129.560237153684,
        "timestamp": "2025-12-19T16:54:44.522071+00:00",
        "meta_object_name": "COSMOS 2456 (730)",
        "meta_object_id": "2009-070A",
        "meta_epoch": "2025-12-18T06:55:18.738048",
        "meta_mean_motion": 2.13103695,
        "meta_eccentricity": 0.00031882,
        "meta_inclination": 64.9035,
        "meta_ra_of_asc_node": 77.1481,
        "meta_arg_of_pericenter": 297.6027,
        "meta_mean_anomaly": 138.5871,
        "meta_ephemeris_type": 0,
        "meta_classification_type": "U",
        "meta_norad_cat_id": 36111,
        "meta_element_set_no": 999,
        "meta_rev_at_epoch": 12457,
        "meta_bstar": 0,
        "meta_mean_motion_dot": -4.1e-07,
        "meta_mean_motion_ddot": 0,
        "tle_line1": "1 36111U 09070A   25352.28841132 -.00000041  00000+0  00000+0 0  9998",
        "tle_line2": "2 36111  64.9035  77.1481 0003188 297.6027 138.5871  2.13103695124574"
      },
      "geometry": {
        "type": "Point",
        "coordinates": [
          150.34850471001,
          63.96083009817427
        ]
      }
    },
    {
      "type": "Feature",
      "properties": {
        "norad_id": 36112,
        "name": "COSMOS 2457 (733)",
        "group": "glo-ops",
        "lat": -28.550761032029527,
        "lon": -88.28429213586143,
        "alt_km": 19126.517429490938,
        "timestamp": "2025-12-19T16:54:44.522083+00:00",
        "meta_object_name": "COSMOS 2457 (733)",
        "meta_object_id": "2009-070B",
        "meta_epoch": "2025-12-18T11:41:17.961216",
        "meta_mean_motion": 2.13101033,
        "meta_eccentricity": 0.00046158,
        "meta_inclination": 64.8891,
        "meta_ra_of_asc_node": 76.9887,
        "meta_arg_of_pericenter": 160.5919,
        "meta_mean_anomaly": 197.0462,
        "meta_ephemeris_type": 0,
        "meta_classification_type": "U",
        "meta_norad_cat_id": 36112,
        "meta_element_set_no": 999,
        "meta_rev_at_epoch": 12457,
        "meta_bstar": 0,
        "meta_mean_motion_dot": -3.9e-07,
        "meta_mean_motion_ddot": 0,
        "tle_line1": "1 36112U 09070B   25352.48701344 -.00000039  00000+0  00000+0 0  9998",
        "tle_line2": "2 36112  64.8891  76.9887 0004615 160.5919 197.0462  2.13101033124575"
      },
      "geometry": {
        "type": "Point",
        "coordinates": [
          -88.28429213586143,
          -28.550761032029527
        ]
      }
    },
    {
      "type": "Feature",
      "properties": {
        "norad_id": 36402,
        "name": "COSMOS 2460 (732)",
        "group": "glo-ops",
        "lat": -28.31921647530937,
        "lon": 154.7235523026806,
        "alt_km": 19130.9622559513,
        "timestamp": "2025-12-19T16:54:44.522095+00:00",
        "meta_object_name": "COSMOS 2460 (732)",
        "meta_object_id": "2010-007C",
        "meta_epoch": "2025-12-19T04:38:53.786112",
        "meta_mean_motion": 2.13106306,
        "meta_eccentricity": 0.0002553,
        "meta_inclination": 65.526,
        "meta_ra_of_asc_node": 320.5549,
        "meta_arg_of_pericenter": 278.744,
        "meta_mean_anomaly": 260.6027,
        "meta_ephemeris_type": 0,
        "meta_classification_type": "U",
        "meta_norad_cat_id": 36402,
        "meta_element_set_no": 999,
        "meta_rev_at_epoch": 12289,
        "meta_bstar": 0,
        "meta_mean_motion_dot": -5.9e-07,
        "meta_mean_motion_ddot": 0,
        "tle_line1": "1 36402U 10007C   25353.19367808 -.00000059  00000+0  00000+0 0  9996",
        "tle_line2": "2 36402  65.5260 320.5549 0002553 278.7440 260.6027  2.13106306122893"
      },
      "geometry": {
        "type": "Point",
        "coordinates": [
          154.7235523026806,
          -28.31921647530937
        ]
      }
    }
  ]
}